#aV2006  4  2  0  0   .00000000      96 DD+AD WGS84 FIT  NGA
## 1369       .00000000   900.00000000 53827  .0000000000000
+   29     1  2  3  4  5  6  7  8  9 10 11 13 14 15 16 17 18
+         19 20 21 22 23 24 25 26 27 28 29 30  0  0  0  0  0
+          0  0  0  0  0  0  0  0  0  0  0  0  0  0  0  0  0
+          0  0  0  0  0  0  0  0  0  0  0  0  0  0  0  0  0
+          0  0  0  0  0  0  0  0  0  0  0  0  0  0  0  0  0
++         0  0  0  0  0  0  0  0  0  0  0  0  0  0  0  0  0
++         0  0  0  0  0  0  0  0  0  0  0  0  0  0  0  0  0
++         0  0  0  0  0  0  0  0  0  0  0  0  0  0  0  0  0
++         0  0  0  0  0  0  0  0  0  0  0  0  0  0  0  0  0
++         0  0  0  0  0  0  0  0  0  0  0  0  0  0  0  0  0
%c cc cc ccc ccc cccc cccc cccc cccc ccccc ccccc ccccc ccccc
%c cc cc ccc ccc cccc cccc cccc cccc ccccc ccccc ccccc ccccc
%f  0.0000000  0.000000000  0.00000000000  0.000000000000000
%f  0.0000000  0.000000000  0.00000000000  0.000000000000000
%i    0    0    0    0      0      0      0      0         0
%i    0    0    0    0      0      0      0      0         0
/*      NGA, ST. LOUIS,MO.                                  
/*   EPHEMERIS COMPUTED FROM  3 DAYS OF DATA                
/* CCCCCCCCCCCCCCCCCCCCCCCCCCCCCCCCCCCCCCCCCCCCCCCCCCCCCCCCC
/* CCCCCCCCCCCCCCCCCCCCCCCCCCCCCCCCCCCCCCCCCCCCCCCCCCCCCCCCC
*  2006  4  2  1 30   .00000000                                                 
P  1  -4053.259876 -14329.894063  22192.163021     44.717802                    
V  1  27487.807818  -2722.647372   3251.679754       .020960                    
P  2  11402.492738  22979.794918   6981.365074    -11.427638                    
V  2  -7878.277637  -5528.498199  29718.842894       .020282                    
P  3 -10659.639715 -13400.682109 -20526.318314     86.771506                    
V  3  24946.632424  -6531.892514  -8456.160576       .032252                    
P  4   1828.885943  21228.907239  15594.229110    193.627411                    
V  4 -13851.228960 -14680.756123  21906.464785       .104355                    
P  5  15722.188820   1763.528784  21125.793635   -237.425787                    
V  5  -7907.332083  26224.281771   3828.663670       .711476                    
P  6  25721.679438  -6182.440430  -2611.876776    444.772506                    
V  6   4085.482264   2953.020655  30871.903833       .255745                    
P  7  17951.533962 -13760.171960 -13767.194190    522.650477                    
V  7  18228.318081   -726.667124  23692.241283       .054021                    
P  8  -6407.602350  15423.153244 -20697.892263    -61.369239                    
V  8 -15811.938321 -20697.499783 -10992.570861      -.010810                    
P  9  20430.090053  13388.158651  10235.572651     14.336477                    
V  9   6869.311470  12102.386880 -27785.762027       .016833                    
P 10   4814.556608  19059.700910 -17798.877882     81.114307                    
V 10 -10486.347532  19973.123259  18953.072037       .005346                    
P 11 -22324.287862  -9974.553116  10594.923489    317.662931                    
V 11  -6998.470902 -12325.194783 -25935.525097       .026342                    
P 13 -25276.236618   6169.873864  -5245.861878     51.591108                    
V 13  -6706.334335  -1108.657474  31550.723236       .026294                    
P 14  12094.952925 -14135.311923  19005.813908    -16.743193                    
V 14  23896.838599  -1828.666881 -16669.462522       .007105                    
P 15   7392.864569 -15173.023524 -20582.023308    589.901162                    
V 15  15102.010166  21033.902181 -10548.355559       .061610                    
P 16     83.693987 -23140.158487 -12861.761050     34.405290                    
V 16   8601.578313 -14283.358424  25675.249451       .021204                    
P 17 -13392.654656  14342.048999  17840.995422     76.976928                    
V 17 -22745.374011   1309.292897 -18197.577156       .054268                    
P 18  17205.479332 -15136.279677 -13072.804093   -228.754027                    
V 18  -4837.144347  16369.227515 -25425.199261      -.018937                    
P 19 -21333.258909  -8022.848835 -13564.163967    -16.826614                    
V 19  17182.063439  -3492.585392 -24730.299618       .013891                    
P 20 -15758.877818   -909.066728  21266.085816    -29.436453                    
V 20   9664.957067 -25463.726803   6082.014365       .007558                    
P 21  14132.758471  -6867.348085 -21397.850623     18.173198                    
V 21  15711.442772  22338.577748   2684.331982       .029762                    
P 22  11891.229691 -23732.648338   -722.218794     81.536092                    
V 22   2213.947471   2276.596565 -31631.624682       .034239                    
P 23 -25762.697645  -1140.866777   6595.041875    145.279851                    
V 23   8065.812539  -3456.694634  30337.261186      -.011502                    
P 24 -10061.202286  12059.822648  21627.865044     97.461557                    
V 24 -15731.229906 -21877.075369   5183.217745       .029016                    
P 25  -6372.708339 -21726.467868  14188.008086       .438518                    
V 25  13513.234511  11209.562156  24041.636922       .118917                    
P 26  18712.691344   9305.172368 -17118.073436    -75.217171                    
V 26 -20518.010659   2947.104561 -20723.788701      -.101966                    
P 27 -13717.963789   6871.098525 -21113.657012     42.470589                    
V 27 -18260.008413 -21504.824467   4400.059945       .016913                    
P 28 -13028.869331  22481.868029  -4228.159307     30.325451                    
V 28   -550.645480  -6538.250970 -31355.300037      -.008061                    
P 29  15233.000284  10483.432538 -18929.538008    575.717862                    
V 29 -24015.313047   4354.462374 -16441.947643       .091288                    
P 30  17146.250744  -9539.478856  17572.627948     81.737664                    
V 30  -6128.432959  22218.479713  17877.297406       .596856                    
EOF
